MOZHAYETS 4 (RS-22)     
1 27939U 03042A   25130.84843023  .00001436  00000+0  23544-3 0  9996
2 27939  98.3259 299.5874 0012724 103.4743  25.6943 14.72276770156453
CUBESAT XI-V            
1 28895U 05043F   25130.38393170  .00002308  00000+0  38467-3 0  9992
2 28895  98.2452 274.3664 0015312  47.0098 313.2389 14.70914769 42504
CUTE-1.7+APD II (CO-65) 
1 32785U 08021C   25130.87150408  .00006552  00000+0  47664-3 0  9997
2 32785  97.7820 101.8247 0008844 320.2151  39.8425 15.04125686924689
SEEDS II (CO-66)        
1 32791U 08021J   25130.52025430  .00012926  00000+0  63893-3 0  9996
2 32791  97.7259 109.9113 0001353 275.4095  84.6984 15.17980418926012
YUBILEINY (RS-30)       
1 32953U 08025A   25130.78570751  .00000028  00000+0  13243-3 0  9993
2 32953  82.5029 245.7030 0020554 111.0366 249.2914 12.43163911769830
KKS-1 (KISEKI)          
1 33499U 09002H   25130.53720624  .00001727  00000+0  22708-3 0  9997
2 33499  98.1221  42.1950 0008802 145.2492 214.9296 14.81527672876545
SWISSCUBE               
1 35932U 09051B   25130.43411702  .00001522  00000+0  31835-3 0  9992
2 35932  98.4336  26.1013 0007776  34.2015 325.9685 14.61262916830313
BEESAT-1                
1 35933U 09051C   25130.46501561  .00001278  00000+0  27238-3 0  9999
2 35933  98.4267  26.5403 0006421  47.5077 312.6664 14.60688291830378
ITUPSAT1                
1 35935U 09051E   25130.59429757  .00001062  00000+0  23397-3 0  9994
2 35935  98.4362  26.2371 0008748  52.2419 307.9571 14.59489834829994
XIWANG-1 (HOPE-1)       
1 36122U 09072B   25130.59821871 -.00000012  00000+0  84515-4 0  9994
2 36122 100.3470  87.0100 0008171  74.9284 285.2733 13.16424049740036
O/OREOS (USA 219)       
1 37224U 10062C   25130.64940491  .00003179  00000+0  32438-3 0  9997
2 37224  71.9708 270.4124 0013285 117.6021 242.6499 14.91314627 56587
JUGNU                   
1 37839U 11058B   25130.61034715  .00000485  00000+0  11387-3 0  9992
2 37839  19.9601 233.8701 0018597 311.4339  88.5954 14.13592995702103
SRMSAT                  
1 37841U 11058D   25130.29035178  .00000486  00000+0  12038-3 0  9998
2 37841  19.9734 337.8432 0011797  91.8306  85.7102 14.11426328700822
STRAND-1                
1 39090U 13009E   25130.45202812  .00000458  00000+0  16944-3 0  9992
2 39090  98.3827 315.9399 0008674   3.3504 356.7740 14.36795716639222
