[
  {
    "OBJECT_NAME": "MOZHAYETS 4 (RS-22)",
    "OBJECT_ID": "2003-042A",
    "EPOCH": "2025-05-10T20:21:44.371872",
    "MEAN_MOTION": 14.7227677,
    "ECCENTRICITY": 0.0012724,
    "INCLINATION": 98.3259,
    "RA_OF_ASC_NODE": 299.5874,
    "ARG_OF_PERICENTER": 103.4743,
    "MEAN_ANOMALY": 25.6943,
    "EPHEMERIS_TYPE": 0,
    "CLASSIFICATION_TYPE": "U",
    "NORAD_CAT_ID": 27939,
    "ELEMENT_SET_NO": 999,
    "REV_AT_EPOCH": 15645,
    "BSTAR": 0.00023544,
    "MEAN_MOTION_DOT": 1.436e-05,
    "MEAN_MOTION_DDOT": 0
  },
  {
    "OBJECT_NAME": "CUBESAT XI-V",
    "OBJECT_ID": "2005-043F",
    "EPOCH": "2025-05-10T09:12:51.698880",
    "MEAN_MOTION": 14.70914769,
    "ECCENTRICITY": 0.0015312,
    "INCLINATION": 98.2452,
    "RA_OF_ASC_NODE": 274.3664,
    "ARG_OF_PERICENTER": 47.0098,
    "MEAN_ANOMALY": 313.2389,
    "EPHEMERIS_TYPE": 0,
    "CLASSIFICATION_TYPE": "U",
    "NORAD_CAT_ID": 28895,
    "ELEMENT_SET_NO": 999,
    "REV_AT_EPOCH": 4250,
    "BSTAR": 0.00038467,
    "MEAN_MOTION_DOT": 2.308e-05,
    "MEAN_MOTION_DDOT": 0
  },
  {
    "OBJECT_NAME": "CUTE-1.7+APD II (CO-65)",
    "OBJECT_ID": "2008-021C",
    "EPOCH": "2025-05-10T20:54:57.952512",
    "MEAN_MOTION": 15.04125686,
    "ECCENTRICITY": 0.0008844,
    "INCLINATION": 97.782,
    "RA_OF_ASC_NODE": 101.8247,
    "ARG_OF_PERICENTER": 320.2151,
    "MEAN_ANOMALY": 39.8425,
    "EPHEMERIS_TYPE": 0,
    "CLASSIFICATION_TYPE": "U",
    "NORAD_CAT_ID": 32785,
    "ELEMENT_SET_NO": 999,
    "REV_AT_EPOCH": 92468,
    "BSTAR": 0.00047664,
    "MEAN_MOTION_DOT": 6.552e-05,
    "MEAN_MOTION_DDOT": 0
  },
  {
    "OBJECT_NAME": "SEEDS II (CO-66)",
    "OBJECT_ID": "2008-021J",
    "EPOCH": "2025-05-10T12:29:09.971520",
    "MEAN_MOTION": 15.17980418,
    "ECCENTRICITY": 0.0001353,
    "INCLINATION": 97.7259,
    "RA_OF_ASC_NODE": 109.9113,
    "ARG_OF_PERICENTER": 275.4095,
    "MEAN_ANOMALY": 84.6984,
    "EPHEMERIS_TYPE": 0,
    "CLASSIFICATION_TYPE": "U",
    "NORAD_CAT_ID": 32791,
    "ELEMENT_SET_NO": 999,
    "REV_AT_EPOCH": 92601,
    "BSTAR": 0.00063893,
    "MEAN_MOTION_DOT": 0.00012926,
    "MEAN_MOTION_DDOT": 0
  },
  {
    "OBJECT_NAME": "YUBILEINY (RS-30)",
    "OBJECT_ID": "2008-025A",
    "EPOCH": "2025-05-10T18:51:25.128864",
    "MEAN_MOTION": 12.43163911,
    "ECCENTRICITY": 0.0020554,
    "INCLINATION": 82.5029,
    "RA_OF_ASC_NODE": 245.703,
    "ARG_OF_PERICENTER": 111.0366,
    "MEAN_ANOMALY": 249.2914,
    "EPHEMERIS_TYPE": 0,
    "CLASSIFICATION_TYPE": "U",
    "NORAD_CAT_ID": 32953,
    "ELEMENT_SET_NO": 999,
    "REV_AT_EPOCH": 76983,
    "BSTAR": 0.00013243,
    "MEAN_MOTION_DOT": 2.8e-07,
    "MEAN_MOTION_DDOT": 0
  },
  {
    "OBJECT_NAME": "KKS-1 (KISEKI)",
    "OBJECT_ID": "2009-002H",
    "EPOCH": "2025-05-10T12:53:34.619136",
    "MEAN_MOTION": 14.81527672,
    "ECCENTRICITY": 0.0008802,
    "INCLINATION": 98.1221,
    "RA_OF_ASC_NODE": 42.195,
    "ARG_OF_PERICENTER": 145.2492,
    "MEAN_ANOMALY": 214.9296,
    "EPHEMERIS_TYPE": 0,
    "CLASSIFICATION_TYPE": "U",
    "NORAD_CAT_ID": 33499,
    "ELEMENT_SET_NO": 999,
    "REV_AT_EPOCH": 87654,
    "BSTAR": 0.00022708,
    "MEAN_MOTION_DOT": 1.727e-05,
    "MEAN_MOTION_DDOT": 0
  },
  {
    "OBJECT_NAME": "SWISSCUBE",
    "OBJECT_ID": "2009-051B",
    "EPOCH": "2025-05-10T10:25:07.710528",
    "MEAN_MOTION": 14.61262916,
    "ECCENTRICITY": 0.0007776,
    "INCLINATION": 98.4336,
    "RA_OF_ASC_NODE": 26.1013,
    "ARG_OF_PERICENTER": 34.2015,
    "MEAN_ANOMALY": 325.9685,
    "EPHEMERIS_TYPE": 0,
    "CLASSIFICATION_TYPE": "U",
    "NORAD_CAT_ID": 35932,
    "ELEMENT_SET_NO": 999,
    "REV_AT_EPOCH": 83031,
    "BSTAR": 0.00031835,
    "MEAN_MOTION_DOT": 1.522e-05,
    "MEAN_MOTION_DDOT": 0
  },
  {
    "OBJECT_NAME": "BEESAT-1",
    "OBJECT_ID": "2009-051C",
    "EPOCH": "2025-05-10T11:09:37.348704",
    "MEAN_MOTION": 14.60688291,
    "ECCENTRICITY": 0.0006421,
    "INCLINATION": 98.4267,
    "RA_OF_ASC_NODE": 26.5403,
    "ARG_OF_PERICENTER": 47.5077,
    "MEAN_ANOMALY": 312.6664,
    "EPHEMERIS_TYPE": 0,
    "CLASSIFICATION_TYPE": "U",
    "NORAD_CAT_ID": 35933,
    "ELEMENT_SET_NO": 999,
    "REV_AT_EPOCH": 83037,
    "BSTAR": 0.00027238,
    "MEAN_MOTION_DOT": 1.278e-05,
    "MEAN_MOTION_DDOT": 0
  },
  {
    "OBJECT_NAME": "ITUPSAT1",
    "OBJECT_ID": "2009-051E",
    "EPOCH": "2025-05-10T14:15:47.310048",
    "MEAN_MOTION": 14.59489834,
    "ECCENTRICITY": 0.0008748,
    "INCLINATION": 98.4362,
    "RA_OF_ASC_NODE": 26.2371,
    "ARG_OF_PERICENTER": 52.2419,
    "MEAN_ANOMALY": 307.9571,
    "EPHEMERIS_TYPE": 0,
    "CLASSIFICATION_TYPE": "U",
    "NORAD_CAT_ID": 35935,
    "ELEMENT_SET_NO": 999,
    "REV_AT_EPOCH": 82999,
    "BSTAR": 0.00023397,
    "MEAN_MOTION_DOT": 1.062e-05,
    "MEAN_MOTION_DDOT": 0
  },
  {
    "OBJECT_NAME": "XIWANG-1 (HOPE-1)",
    "OBJECT_ID": "2009-072B",
    "EPOCH": "2025-05-10T14:21:26.096544",
    "MEAN_MOTION": 13.16424049,
    "ECCENTRICITY": 0.0008171,
    "INCLINATION": 100.347,
    "RA_OF_ASC_NODE": 87.01,
    "ARG_OF_PERICENTER": 74.9284,
    "MEAN_ANOMALY": 285.2733,
    "EPHEMERIS_TYPE": 0,
    "CLASSIFICATION_TYPE": "U",
    "NORAD_CAT_ID": 36122,
    "ELEMENT_SET_NO": 999,
    "REV_AT_EPOCH": 74003,
    "BSTAR": 8.4515e-05,
    "MEAN_MOTION_DOT": -1.2e-07,
    "MEAN_MOTION_DDOT": 0
  },
  {
    "OBJECT_NAME": "O/OREOS (USA 219)",
    "OBJECT_ID": "2010-062C",
    "EPOCH": "2025-05-10T15:35:08.584224",
    "MEAN_MOTION": 14.91314627,
    "ECCENTRICITY": 0.0013285,
    "INCLINATION": 71.9708,
    "RA_OF_ASC_NODE": 270.4124,
    "ARG_OF_PERICENTER": 117.6021,
    "MEAN_ANOMALY": 242.6499,
    "EPHEMERIS_TYPE": 0,
    "CLASSIFICATION_TYPE": "U",
    "NORAD_CAT_ID": 37224,
    "ELEMENT_SET_NO": 999,
    "REV_AT_EPOCH": 5658,
    "BSTAR": 0.00032438,
    "MEAN_MOTION_DOT": 3.179e-05,
    "MEAN_MOTION_DDOT": 0
  },
  {
    "OBJECT_NAME": "JUGNU",
    "OBJECT_ID": "2011-058B",
    "EPOCH": "2025-05-10T14:38:53.993760",
    "MEAN_MOTION": 14.13592995,
    "ECCENTRICITY": 0.0018597,
    "INCLINATION": 19.9601,
    "RA_OF_ASC_NODE": 233.8701,
    "ARG_OF_PERICENTER": 311.4339,
    "MEAN_ANOMALY": 88.5954,
    "EPHEMERIS_TYPE": 0,
    "CLASSIFICATION_TYPE": "U",
    "NORAD_CAT_ID": 37839,
    "ELEMENT_SET_NO": 999,
    "REV_AT_EPOCH": 70210,
    "BSTAR": 0.00011387,
    "MEAN_MOTION_DOT": 4.85e-06,
    "MEAN_MOTION_DDOT": 0
  },
  {
    "OBJECT_NAME": "SRMSAT",
    "OBJECT_ID": "2011-058D",
    "EPOCH": "2025-05-10T06:58:06.393792",
    "MEAN_MOTION": 14.11426328,
    "ECCENTRICITY": 0.0011797,
    "INCLINATION": 19.9734,
    "RA_OF_ASC_NODE": 337.8432,
    "ARG_OF_PERICENTER": 91.8306,
    "MEAN_ANOMALY": 85.7102,
    "EPHEMERIS_TYPE": 0,
    "CLASSIFICATION_TYPE": "U",
    "NORAD_CAT_ID": 37841,
    "ELEMENT_SET_NO": 999,
    "REV_AT_EPOCH": 70082,
    "BSTAR": 0.00012038,
    "MEAN_MOTION_DOT": 4.86e-06,
    "MEAN_MOTION_DDOT": 0
  },
  {
    "OBJECT_NAME": "STRAND-1",
    "OBJECT_ID": "2013-009E",
    "EPOCH": "2025-05-10T10:50:55.229568",
    "MEAN_MOTION": 14.36795716,
    "ECCENTRICITY": 0.0008674,
    "INCLINATION": 98.3827,
    "RA_OF_ASC_NODE": 315.9399,
    "ARG_OF_PERICENTER": 3.3504,
    "MEAN_ANOMALY": 356.774,
    "EPHEMERIS_TYPE": 0,
    "CLASSIFICATION_TYPE": "U",
    "NORAD_CAT_ID": 39090,
    "ELEMENT_SET_NO": 999,
    "REV_AT_EPOCH": 63922,
    "BSTAR": 0.00016944,
    "MEAN_MOTION_DOT": 4.58e-06,
    "MEAN_MOTION_DDOT": 0
  }
]